start=new Date('2022-03-21T00:00:00.000Z').valueOf();
sats=[{"CLASSIFICATION_TYPE":"U","APOAPSIS":"548.315","PERIAPSIS":"546.112","TLE_LINE1":"1 47751U 21017AF  22079.80524565 -.00000558  00000-0 -18534-4 0  9995","ARG_OF_PERICENTER":"52.7601","NORAD_CAT_ID":"47751","MEAN_MOTION":"15.06399965","MEAN_MOTION_DDOT":"0.0000000000000","BSTAR":"-0.00001853400000","OBJECT_TYPE":"PAYLOAD","CENTER_NAME":"EARTH","EPHEMERIS_TYPE":"0","OBJECT_ID":"2021-017AF","ELEMENT_SET_NO":"999","ECCENTRICITY":"0.00015910","FILE":"3367488","TLE_LINE2":"2 47751  53.0542 220.3889 0001591  52.7601 307.3533 15.06399965 59487","MEAN_ANOMALY":"307.3533","INCLINATION":"53.0542","DECAY_DATE":null,"OBJECT_NAME":"STARLINK-2168","LAUNCH_DATE":"2021-03-04","GP_ID":"199266710","TIME_SYSTEM":"UTC","SITE":"AFETR","EPOCH":"2022-03-20T19:19:33.224160","MEAN_MOTION_DOT":"-0.00000558","RCS_SIZE":"MEDIUM","PERIOD":"95.592","SEMIMAJOR_AXIS":"6925.349","COUNTRY_CODE":"US","REF_FRAME":"TEME","MEAN_ELEMENT_THEORY":"SGP4","RA_OF_ASC_NODE":"220.3889","REV_AT_EPOCH":"5948"},{"SEMIMAJOR_AXIS":"6925.318","REV_AT_EPOCH":"5932","RA_OF_ASC_NODE":"235.2608","MEAN_ELEMENT_THEORY":"SGP4","REF_FRAME":"TEME","COUNTRY_CODE":"US","TIME_SYSTEM":"UTC","SITE":"AFETR","GP_ID":"199267462","LAUNCH_DATE":"2021-03-04","PERIOD":"95.592","RCS_SIZE":"MEDIUM","MEAN_MOTION_DOT":"0.00001980","EPOCH":"2022-03-20T20:07:59.983680","ELEMENT_SET_NO":"999","OBJECT_ID":"2021-017AG","EPHEMERIS_TYPE":"0","CENTER_NAME":"EARTH","OBJECT_NAME":"STARLINK-2169","DECAY_DATE":null,"INCLINATION":"53.0526","MEAN_ANOMALY":"295.1504","TLE_LINE2":"2 47752  53.0526 235.2608 0001677  64.9658 295.1504 15.06409861 59328","ECCENTRICITY":"0.00016770","FILE":"3367488","ARG_OF_PERICENTER":"64.9658","PERIAPSIS":"546.022","TLE_LINE1":"1 47752U 21017AG  22079.83888870  .00001980  00000-0  15173-3 0  9994","APOAPSIS":"548.345","CLASSIFICATION_TYPE":"U","OBJECT_TYPE":"PAYLOAD","BSTAR":"0.00015173000000","MEAN_MOTION_DDOT":"0.0000000000000","MEAN_MOTION":"15.06409861","NORAD_CAT_ID":"47752"},{"GP_ID":"199268212","SITE":"AFETR","TIME_SYSTEM":"UTC","LAUNCH_DATE":"2021-03-04","PERIOD":"95.592","EPOCH":"2022-03-20T17:57:17.310528","MEAN_MOTION_DOT":"0.00003934","RCS_SIZE":"LARGE","SEMIMAJOR_AXIS":"6925.319","REF_FRAME":"TEME","RA_OF_ASC_NODE":"240.6611","MEAN_ELEMENT_THEORY":"SGP4","REV_AT_EPOCH":"5923","COUNTRY_CODE":"US","APOAPSIS":"548.299","PERIAPSIS":"546.068","TLE_LINE1":"1 47753U 21017AH  22079.74811702  .00003934  00000-0  28276-3 0  9994","ARG_OF_PERICENTER":"59.9581","CLASSIFICATION_TYPE":"U","BSTAR":"0.00028276000000","OBJECT_TYPE":"PAYLOAD","MEAN_MOTION":"15.06409712","NORAD_CAT_ID":"47753","MEAN_MOTION_DDOT":"0.0000000000000","OBJECT_ID":"2021-017AH","EPHEMERIS_TYPE":"0","ELEMENT_SET_NO":"999","CENTER_NAME":"EARTH","MEAN_ANOMALY":"300.1567","INCLINATION":"53.0551","DECAY_DATE":null,"OBJECT_NAME":"STARLINK-2170","FILE":"3367488","ECCENTRICITY":"0.00016110","TLE_LINE2":"2 47753  53.0551 240.6611 0001611  59.9581 300.1567 15.06409712 59239"},{"ARG_OF_PERICENTER":"52.0208","APOAPSIS":"548.317","PERIAPSIS":"546.070","TLE_LINE1":"1 47754U 21017AJ  22079.85132340  .00000194  00000-0  31923-4 0  9990","CLASSIFICATION_TYPE":"U","OBJECT_TYPE":"PAYLOAD","BSTAR":"0.00003192300000","MEAN_MOTION_DDOT":"0.0000000000000","NORAD_CAT_ID":"47754","MEAN_MOTION":"15.06406540","ELEMENT_SET_NO":"999","OBJECT_ID":"2021-017AJ","EPHEMERIS_TYPE":"0","CENTER_NAME":"EARTH","DECAY_DATE":null,"OBJECT_NAME":"STARLINK-2171","MEAN_ANOMALY":"308.0927","INCLINATION":"53.0566","TLE_LINE2":"2 47754  53.0566 240.2094 0001623  52.0208 308.0927 15.06406540 59211","ECCENTRICITY":"0.00016230","FILE":"3367488","SITE":"AFETR","TIME_SYSTEM":"UTC","GP_ID":"199266960","LAUNCH_DATE":"2021-03-04","PERIOD":"95.592","RCS_SIZE":"LARGE","MEAN_MOTION_DOT":"0.00000194","EPOCH":"2022-03-20T20:25:54.341760","SEMIMAJOR_AXIS":"6925.329","REV_AT_EPOCH":"5921","REF_FRAME":"TEME","MEAN_ELEMENT_THEORY":"SGP4","RA_OF_ASC_NODE":"240.2094","COUNTRY_CODE":"US"},{"COUNTRY_CODE":"US","REV_AT_EPOCH":"5963","RA_OF_ASC_NODE":"209.3058","MEAN_ELEMENT_THEORY":"SGP4","REF_FRAME":"TEME","SEMIMAJOR_AXIS":"6733.555","RCS_SIZE":"LARGE","EPOCH":"2022-03-20T18:15:45.927936","MEAN_MOTION_DOT":"0.00048272","PERIOD":"91.649","LAUNCH_DATE":"2021-03-04","SITE":"AFETR","TIME_SYSTEM":"UTC","GP_ID":"199267210","TLE_LINE2":"2 47755  53.0509 209.3058 0002355 316.7599  43.3233 15.71216756 59636","ECCENTRICITY":"0.00023550","FILE":"3367488","OBJECT_NAME":"STARLINK-2172","DECAY_DATE":null,"MEAN_ANOMALY":"43.3233","INCLINATION":"53.0509","CENTER_NAME":"EARTH","ELEMENT_SET_NO":"999","EPHEMERIS_TYPE":"0","OBJECT_ID":"2021-017AK","MEAN_MOTION_DDOT":"0.0000000000000","MEAN_MOTION":"15.71216756","NORAD_CAT_ID":"47755","OBJECT_TYPE":"PAYLOAD","BSTAR":"0.00037656000000","CLASSIFICATION_TYPE":"U","ARG_OF_PERICENTER":"316.7599","TLE_LINE1":"1 47755U 21017AK  22079.76094824  .00048272  00000-0  37656-3 0  9992","PERIAPSIS":"353.835","APOAPSIS":"357.006"},{"ARG_OF_PERICENTER":"72.3463","TLE_LINE1":"1 47756U 21017AL  22079.71493706  .00002534  00000-0  18891-3 0  9991","PERIAPSIS":"546.209","APOAPSIS":"548.158","CLASSIFICATION_TYPE":"U","OBJECT_TYPE":"PAYLOAD","BSTAR":"0.00018891000000","MEAN_MOTION_DDOT":"0.0000000000000","NORAD_CAT_ID":"47756","MEAN_MOTION":"15.06409721","ELEMENT_SET_NO":"999","EPHEMERIS_TYPE":"0","OBJECT_ID":"2021-017AL","CENTER_NAME":"EARTH","OBJECT_NAME":"STARLINK-2174","DECAY_DATE":null,"MEAN_ANOMALY":"287.7680","INCLINATION":"53.0529","TLE_LINE2":"2 47756  53.0529 240.8181 0001407  72.3463 287.7680 15.06409721 59238","ECCENTRICITY":"0.00014070","FILE":"3367488","SITE":"AFETR","TIME_SYSTEM":"UTC","GP_ID":"199267962","LAUNCH_DATE":"2021-03-04","PERIOD":"95.592","RCS_SIZE":"LARGE","MEAN_MOTION_DOT":"0.00002534","EPOCH":"2022-03-20T17:09:30.561984","SEMIMAJOR_AXIS":"6925.319","REV_AT_EPOCH":"5923","MEAN_ELEMENT_THEORY":"SGP4","RA_OF_ASC_NODE":"240.8181","REF_FRAME":"TEME","COUNTRY_CODE":"US"},{"MEAN_MOTION_DOT":"0.00001003","EPOCH":"2022-03-20T19:59:22.824384","RCS_SIZE":"LARGE","PERIOD":"95.592","LAUNCH_DATE":"2021-03-04","GP_ID":"199239533","TIME_SYSTEM":"UTC","SITE":"AFETR","COUNTRY_CODE":"US","MEAN_ELEMENT_THEORY":"SGP4","RA_OF_ASC_NODE":"240.2919","REF_FRAME":"TEME","REV_AT_EPOCH":"5857","SEMIMAJOR_AXIS":"6925.326","MEAN_MOTION":"15.06407252","NORAD_CAT_ID":"47757","MEAN_MOTION_DDOT":"0.0000000000000","BSTAR":"0.00008622700000","OBJECT_TYPE":"PAYLOAD","CLASSIFICATION_TYPE":"U","TLE_LINE1":"1 47757U 21017AM  22079.83290306  .00001003  00000-0  86227-4 0  9995","PERIAPSIS":"546.105","APOAPSIS":"548.277","ARG_OF_PERICENTER":"57.5285","ECCENTRICITY":"0.00015680","FILE":"3367202","TLE_LINE2":"2 47757  53.0538 240.2919 0001568  57.5285 302.5855 15.06407252 58570","INCLINATION":"53.0538","MEAN_ANOMALY":"302.5855","OBJECT_NAME":"STARLINK-2175","DECAY_DATE":null,"CENTER_NAME":"EARTH","EPHEMERIS_TYPE":"0","OBJECT_ID":"2021-017AM","ELEMENT_SET_NO":"999"},{"REF_FRAME":"TEME","RA_OF_ASC_NODE":"214.2816","MEAN_ELEMENT_THEORY":"SGP4","REV_AT_EPOCH":"5962","COUNTRY_CODE":"US","SEMIMAJOR_AXIS":"6716.129","PERIOD":"91.293","MEAN_MOTION_DOT":"0.00344411","EPOCH":"2022-03-20T20:56:23.705376","RCS_SIZE":"LARGE","GP_ID":"199266461","SITE":"AFETR","TIME_SYSTEM":"UTC","LAUNCH_DATE":"2021-03-04","MEAN_ANOMALY":"342.6987","INCLINATION":"53.0555","DECAY_DATE":null,"OBJECT_NAME":"STARLINK-2176","ECCENTRICITY":"0.00010790","FILE":"3367488","TLE_LINE2":"2 47758  53.0555 214.2816 0001079  17.4070 342.6987 15.77336145 59629","OBJECT_ID":"2021-017AN","EPHEMERIS_TYPE":"0","ELEMENT_SET_NO":"999","CENTER_NAME":"EARTH","BSTAR":"0.00197030000000","OBJECT_TYPE":"PAYLOAD","NORAD_CAT_ID":"47758","MEAN_MOTION":"15.77336145","MEAN_MOTION_DDOT":"0.0000000000000","APOAPSIS":"338.718","PERIAPSIS":"337.269","TLE_LINE1":"1 47758U 21017AN  22079.87249659  .00344411  00000-0  19703-2 0  9991","ARG_OF_PERICENTER":"17.4070","CLASSIFICATION_TYPE":"U"},{"BSTAR":"0.00003766000000","OBJECT_TYPE":"PAYLOAD","MEAN_MOTION":"15.06404780","NORAD_CAT_ID":"47760","MEAN_MOTION_DDOT":"0.0000000000000","PERIAPSIS":"546.022","TLE_LINE1":"1 47760U 21017AQ  22079.86514134  .00000279  00000-0  37660-4 0  9991","APOAPSIS":"548.376","ARG_OF_PERICENTER":"54.5971","CLASSIFICATION_TYPE":"U","MEAN_ANOMALY":"305.5177","INCLINATION":"53.0544","OBJECT_NAME":"STARLINK-2178","DECAY_DATE":null,"ECCENTRICITY":"0.00017000","FILE":"3367488","TLE_LINE2":"2 47760  53.0544 250.1389 0001700  54.5971 305.5177 15.06404780 59090","OBJECT_ID":"2021-017AQ","EPHEMERIS_TYPE":"0","ELEMENT_SET_NO":"999","CENTER_NAME":"EARTH","PERIOD":"95.592","EPOCH":"2022-03-20T20:45:48.211776","MEAN_MOTION_DOT":"0.00000279","RCS_SIZE":"LARGE","GP_ID":"199266711","SITE":"AFETR","TIME_SYSTEM":"UTC","LAUNCH_DATE":"2021-03-04","MEAN_ELEMENT_THEORY":"SGP4","RA_OF_ASC_NODE":"250.1389","REF_FRAME":"TEME","REV_AT_EPOCH":"5909","COUNTRY_CODE":"US","SEMIMAJOR_AXIS":"6925.334"},{"MEAN_ANOMALY":"299.8403","INCLINATION":"53.0539","DECAY_DATE":null,"OBJECT_NAME":"STARLINK-2179","ECCENTRICITY":"0.00017250","FILE":"3367488","TLE_LINE2":"2 47761  53.0539 240.5994 0001725  60.2757 299.8403 15.06411152 59192","EPHEMERIS_TYPE":"0","OBJECT_ID":"2021-017AR","ELEMENT_SET_NO":"999","CENTER_NAME":"EARTH","BSTAR":"0.00018494000000","OBJECT_TYPE":"PAYLOAD","MEAN_MOTION":"15.06411152","NORAD_CAT_ID":"47761","MEAN_MOTION_DDOT":"0.0000000000000","APOAPSIS":"548.374","PERIAPSIS":"545.985","TLE_LINE1":"1 47761U 21017AR  22079.76285767  .00002475  00000-0  18494-3 0  9991","ARG_OF_PERICENTER":"60.2757","CLASSIFICATION_TYPE":"U","REF_FRAME":"TEME","RA_OF_ASC_NODE":"240.5994","MEAN_ELEMENT_THEORY":"SGP4","REV_AT_EPOCH":"5919","COUNTRY_CODE":"US","SEMIMAJOR_AXIS":"6925.314","PERIOD":"95.591","EPOCH":"2022-03-20T18:18:30.902688","MEAN_MOTION_DOT":"0.00002475","RCS_SIZE":"LARGE","GP_ID":"199267463","SITE":"AFETR","TIME_SYSTEM":"UTC","LAUNCH_DATE":"2021-03-04"}];
